{"type": "FeatureCollection", "features": [{"type": "Feature", "properties": {"norad_id": 2807, "name": "OPS 7218 (TRANSIT 16)", "group": "nnss", "lat": 30.96513881431078, "lon": 173.8903844271694, "alt_km": 1053.716952831468, "timestamp": "2025-12-10T14:53:37.361382+00:00", "meta": {"OBJECT_NAME": "OPS 7218 (TRANSIT 16)", "OBJECT_ID": "1967-048A", "EPOCH": "2025-12-10T07:06:12.998592", "MEAN_MOTION": 13.50721516, "ECCENTRICITY": 0.00218563, "INCLINATION": 89.6732, "RA_OF_ASC_NODE": 354.0973, "ARG_OF_PERICENTER": 120.617, "MEAN_ANOMALY": 250.802, "EPHEMERIS_TYPE": 0, "CLASSIFICATION_TYPE": "U", "NORAD_CAT_ID": 2807, "ELEMENT_SET_NO": 999, "REV_AT_EPOCH": 88243, "BSTAR": 0.00020444506, "MEAN_MOTION_DOT": 1.42e-06, "MEAN_MOTION_DDOT": 0}, "tle": {"line1": "1 02807U 67048A   25344.29598378  .00000142  00000+0  20445-3 0  9995", "line2": "2 02807  89.6732 354.0973 0021856 120.6170 250.8020 13.50721516882437"}}, "geometry": {"type": "Point", "coordinates": [173.8903844271694, 30.96513881431078]}}, {"type": "Feature", "properties": {"norad_id": 2965, "name": "OPS 4947 (TRANSIT 17)", "group": "nnss", "lat": -12.212930128427528, "lon": -155.24012299895261, "alt_km": 1041.3456815075742, "timestamp": "2025-12-10T14:53:37.361403+00:00", "meta": {"OBJECT_NAME": "OPS 4947 (TRANSIT 17)", "OBJECT_ID": "1967-092A", "EPOCH": "2025-12-10T03:35:49.999200", "MEAN_MOTION": 13.5345247, "ECCENTRICITY": 0.0046041, "INCLINATION": 89.2498, "RA_OF_ASC_NODE": 24.6332, "ARG_OF_PERICENTER": 242.2755, "MEAN_ANOMALY": 178.1976, "EPHEMERIS_TYPE": 0, "CLASSIFICATION_TYPE": "U", "NORAD_CAT_ID": 2965, "ELEMENT_SET_NO": 999, "REV_AT_EPOCH": 87062, "BSTAR": 0.00022488342, "MEAN_MOTION_DOT": 1.63e-06, "MEAN_MOTION_DDOT": 0}, "tle": {"line1": "1 02965U 67092A   25344.14988425  .00000163  00000+0  22488-3 0  9991", "line2": "2 02965  89.2498  24.6332 0046041 242.2755 178.1976 13.53452470870622"}}, "geometry": {"type": "Point", "coordinates": [-155.24012299895261, -12.212930128427528]}}, {"type": "Feature", "properties": {"norad_id": 3133, "name": "OPS 7034 (TRANSIT 18)", "group": "nnss", "lat": -4.058800083620599, "lon": -86.36526684706332, "alt_km": 1124.7809249694646, "timestamp": "2025-12-10T14:53:37.361415+00:00", "meta": {"OBJECT_NAME": "OPS 7034 (TRANSIT 18)", "OBJECT_ID": "1968-012A", "EPOCH": "2025-12-10T04:53:43.714752", "MEAN_MOTION": 13.51564774, "ECCENTRICITY": 0.00736072, "INCLINATION": 90.0277, "RA_OF_ASC_NODE": 273.6316, "ARG_OF_PERICENTER": 176.489, "MEAN_ANOMALY": 313.797, "EPHEMERIS_TYPE": 0, "CLASSIFICATION_TYPE": "U", "NORAD_CAT_ID": 3133, "ELEMENT_SET_NO": 999, "REV_AT_EPOCH": 56884, "BSTAR": 0.00026237374, "MEAN_MOTION_DOT": 1.83e-06, "MEAN_MOTION_DDOT": 0}, "tle": {"line1": "1 03133U 68012A   25344.20397818  .00000183  00000+0  26237-3 0  9997", "line2": "2 03133  90.0277 273.6316 0073607 176.4890 313.7970 13.51564774568847"}}, "geometry": {"type": "Point", "coordinates": [-86.36526684706332, -4.058800083620599]}}, {"type": "Feature", "properties": {"norad_id": 4507, "name": "NNSS 19 (TRANSIT 19)", "group": "nnss", "lat": -29.667969590804244, "lon": -125.46450185804767, "alt_km": 963.6768178877246, "timestamp": "2025-12-10T14:53:37.361426+00:00", "meta": {"OBJECT_NAME": "NNSS 19 (TRANSIT 19)", "OBJECT_ID": "1970-067A", "EPOCH": "2025-12-10T06:09:04.714848", "MEAN_MOTION": 13.5131421, "ECCENTRICITY": 0.01706954, "INCLINATION": 90.0056, "RA_OF_ASC_NODE": 234.5321, "ARG_OF_PERICENTER": 300.6377, "MEAN_ANOMALY": 57.8039, "EPHEMERIS_TYPE": 0, "CLASSIFICATION_TYPE": "U", "NORAD_CAT_ID": 4507, "ELEMENT_SET_NO": 999, "REV_AT_EPOCH": 72188, "BSTAR": 0.00026980875, "MEAN_MOTION_DOT": 1.99e-06, "MEAN_MOTION_DDOT": 0}, "tle": {"line1": "1 04507U 70067A   25344.25630457  .00000199  00000+0  26981-3 0  9993", "line2": "2 04507  90.0056 234.5321 0170695 300.6377  57.8039 13.51314210721881"}}, "geometry": {"type": "Point", "coordinates": [-125.46450185804767, -29.667969590804244]}}, {"type": "Feature", "properties": {"norad_id": 6909, "name": "NNSS 20 (TRANSIT 20)", "group": "nnss", "lat": -69.35325918723885, "lon": 75.4674585627106, "alt_km": 1113.0965407664999, "timestamp": "2025-12-10T14:53:37.361437+00:00", "meta": {"OBJECT_NAME": "NNSS 20 (TRANSIT 20)", "OBJECT_ID": "1973-081A", "EPOCH": "2025-12-10T06:41:18.269088", "MEAN_MOTION": 13.71432468, "ECCENTRICITY": 0.01566145, "INCLINATION": 89.8563, "RA_OF_ASC_NODE": 255.091, "ARG_OF_PERICENTER": 85.6012, "MEAN_ANOMALY": 276.3026, "EPHEMERIS_TYPE": 0, "CLASSIFICATION_TYPE": "U", "NORAD_CAT_ID": 6909, "ELEMENT_SET_NO": 999, "REV_AT_EPOCH": 80327, "BSTAR": 0.00033623777, "MEAN_MOTION_DOT": 3.42e-06, "MEAN_MOTION_DDOT": 0}, "tle": {"line1": "1 06909U 73081A   25344.27868367  .00000342  00000+0  33624-3 0  9997", "line2": "2 06909  89.8563 255.0910 0156614  85.6012 276.3026 13.71432468803277"}}, "geometry": {"type": "Point", "coordinates": [75.4674585627106, -69.35325918723885]}}, {"type": "Feature", "properties": {"norad_id": 10457, "name": "TRANSAT", "group": "nnss", "lat": -7.509177314635759, "lon": 78.62561370965584, "alt_km": 1097.2788352591797, "timestamp": "2025-12-10T14:53:37.361446+00:00", "meta": {"OBJECT_NAME": "TRANSAT", "OBJECT_ID": "1977-106A", "EPOCH": "2025-12-10T08:08:02.573088", "MEAN_MOTION": 13.48943113, "ECCENTRICITY": 0.00251637, "INCLINATION": 89.6481, "RA_OF_ASC_NODE": 78.682, "ARG_OF_PERICENTER": 196.5115, "MEAN_ANOMALY": 229.0335, "EPHEMERIS_TYPE": 0, "CLASSIFICATION_TYPE": "U", "NORAD_CAT_ID": 10457, "ELEMENT_SET_NO": 999, "REV_AT_EPOCH": 36711, "BSTAR": 0.00020017454, "MEAN_MOTION_DOT": 1.36e-06, "MEAN_MOTION_DDOT": 0}, "tle": {"line1": "1 10457U 77106A   25344.33891867  .00000136  00000+0  20017-3 0  9993", "line2": "2 10457  89.6481  78.6820 0025163 196.5115 229.0335 13.48943113367110"}}, "geometry": {"type": "Point", "coordinates": [78.62561370965584, -7.509177314635759]}}, {"type": "Feature", "properties": {"norad_id": 12458, "name": "NOVA 1", "group": "nnss", "lat": 89.47418737702355, "lon": 107.726855125457, "alt_km": 1153.4616721361672, "timestamp": "2025-12-10T14:53:37.361456+00:00", "meta": {"OBJECT_NAME": "NOVA 1", "OBJECT_ID": "1981-044A", "EPOCH": "2025-12-10T07:15:46.976256", "MEAN_MOTION": 13.23278143, "ECCENTRICITY": 0.00158591, "INCLINATION": 89.8524, "RA_OF_ASC_NODE": 91.4196, "ARG_OF_PERICENTER": 109.9742, "MEAN_ANOMALY": 265.8367, "EPHEMERIS_TYPE": 0, "CLASSIFICATION_TYPE": "U", "NORAD_CAT_ID": 12458, "ELEMENT_SET_NO": 999, "REV_AT_EPOCH": 15154, "BSTAR": 0.00018395376, "MEAN_MOTION_DOT": 8.7e-07, "MEAN_MOTION_DDOT": 0}, "tle": {"line1": "1 12458U 81044A   25344.30262704  .00000087  00000+0  18395-3 0  9992", "line2": "2 12458  89.8524  91.4196 0015859 109.9742 265.8367 13.23278143151545"}}, "geometry": {"type": "Point", "coordinates": [107.726855125457, 89.47418737702355]}}, {"type": "Feature", "properties": {"norad_id": 15362, "name": "NOVA 3", "group": "nnss", "lat": -36.15941862681278, "lon": 80.5993154349428, "alt_km": 1156.9543759121107, "timestamp": "2025-12-10T14:53:37.361476+00:00", "meta": {"OBJECT_NAME": "NOVA 3", "OBJECT_ID": "1984-110A", "EPOCH": "2025-12-10T08:08:18.362688", "MEAN_MOTION": 13.23044241, "ECCENTRICITY": 0.00306698, "INCLINATION": 90.1224, "RA_OF_ASC_NODE": 80.5065, "ARG_OF_PERICENTER": 338.7518, "MEAN_ANOMALY": 85.4174, "EPHEMERIS_TYPE": 0, "CLASSIFICATION_TYPE": "U", "NORAD_CAT_ID": 15362, "ELEMENT_SET_NO": 999, "REV_AT_EPOCH": 98667, "BSTAR": 0.00022498944, "MEAN_MOTION_DOT": 1.03e-06, "MEAN_MOTION_DDOT": 0}, "tle": {"line1": "1 15362U 84110A   25344.33910142  .00000103  00000+0  22499-3 0  9994", "line2": "2 15362  90.1224  80.5065 0030669 338.7518  85.4174 13.23044241986679"}}, "geometry": {"type": "Point", "coordinates": [80.5993154349428, -36.15941862681278]}}, {"type": "Feature", "properties": {"norad_id": 15935, "name": "OSCAR 30", "group": "nnss", "lat": -55.68243536557561, "lon": 100.0540903419106, "alt_km": 1235.01112943293, "timestamp": "2025-12-10T14:53:37.361486+00:00", "meta": {"OBJECT_NAME": "OSCAR 30", "OBJECT_ID": "1985-066A", "EPOCH": "2025-12-10T06:30:31.272192", "MEAN_MOTION": 13.36077806, "ECCENTRICITY": 0.01694237, "INCLINATION": 90.1649, "RA_OF_ASC_NODE": 99.8067, "ARG_OF_PERICENTER": 90.7951, "MEAN_ANOMALY": 335.2342, "EPHEMERIS_TYPE": 0, "CLASSIFICATION_TYPE": "U", "NORAD_CAT_ID": 15935, "ELEMENT_SET_NO": 999, "REV_AT_EPOCH": 96420, "BSTAR": 0.00026556644, "MEAN_MOTION_DOT": 1.58e-06, "MEAN_MOTION_DDOT": 0}, "tle": {"line1": "1 15935U 85066A   25344.27119528  .00000158  00000+0  26557-3 0  9992", "line2": "2 15935  90.1649  99.8067 0169423  90.7951 335.2342 13.36077806964203"}}, "geometry": {"type": "Point", "coordinates": [100.0540903419106, -55.68243536557561]}}, {"type": "Feature", "properties": {"norad_id": 15936, "name": "OSCAR 24", "group": "nnss", "lat": 19.93089708405929, "lon": 92.20307947205396, "alt_km": 1091.9581997525802, "timestamp": "2025-12-10T14:53:37.361496+00:00", "meta": {"OBJECT_NAME": "OSCAR 24", "OBJECT_ID": "1985-066B", "EPOCH": "2025-12-10T07:52:05.180736", "MEAN_MOTION": 13.35935302, "ECCENTRICITY": 0.01704815, "INCLINATION": 90.1788, "RA_OF_ASC_NODE": 92.2628, "ARG_OF_PERICENTER": 97.0704, "MEAN_ANOMALY": 317.819, "EPHEMERIS_TYPE": 0, "CLASSIFICATION_TYPE": "U", "NORAD_CAT_ID": 15936, "ELEMENT_SET_NO": 999, "REV_AT_EPOCH": 96611, "BSTAR": 0.00022578652, "MEAN_MOTION_DOT": 1.36e-06, "MEAN_MOTION_DDOT": 0}, "tle": {"line1": "1 15936U 85066B   25344.32783774  .00000136  00000+0  22579-3 0  9995", "line2": "2 15936  90.1788  92.2628 0170481  97.0704 317.8190 13.35935302966112"}}, "geometry": {"type": "Point", "coordinates": [92.20307947205396, 19.93089708405929]}}]}